NORAD_CAT_ID,OBJECT_NAME,OBJECT_TYPE,EPOCH,MEAN_MOTION,ECCENTRICITY,INCLINATION,RA_OF_ASC_NODE,ARG_OF_PERICENTER,MEAN_ANOMALY,BSTAR,MEAN_MOTION_DOT,MEAN_MOTION_DDOT,TLE_LINE0,TLE_LINE1,TLE_LINE2,SEMIMAJOR_AXIS,PERIOD,APOGEE,PERIGEE,DECAYED
51726.0,STARLINK-3527,PAYLOAD,2023-10-26 02:56:28,15.08850803,0.0001522,53.216,244.7992,97.8477,262.2688,0.00034674,5.236e-05,0.0,0 STARLINK-3527,1 51726U 22016N   23299.12254936  .00005236  00000-0  34674-3 0  9992,2 51726  53.2160 244.7992 0001522  97.8477 262.2688 15.08850803 93957,6917.847,95.437,540.765,538.659,0.0
51726.0,STARLINK-3527,PAYLOAD,2023-10-26 06:07:14,15.08853731,0.0001494,53.2162,244.2042,101.1684,258.9476,0.00041704,6.358e-05,0.0,0 STARLINK-3527,1 51726U 22016N   23299.25502919  .00006358  00000-0  41704-3 0  9991,2 51726  53.2162 244.2042 0001494 101.1684 258.9476 15.08853731 92912,6917.838,95.437,540.737,538.67,0.0
51726.0,STARLINK-3527,PAYLOAD,2023-10-27 02:47:14,15.08854741,0.0001427,53.2151,240.3402,97.0542,263.0613,0.00031901,4.795e-05,0.0,0 STARLINK-3527,1 51726U 22016N   23300.11614556  .00004795  00000-0  31901-3 0  9991,2 51726  53.2151 240.3402 0001427  97.0542 263.0613 15.08854741 94104,6917.835,95.437,540.688,538.713,0.0
51726.0,STARLINK-3527,PAYLOAD,2023-10-28 01:02:39,15.08838433,0.0001558,53.2164,236.176,107.9971,252.1191,3.8641e-05,3.27e-06,0.0,0 STARLINK-3527,1 51726U 22016N   23301.04351201  .00000327  00000-0  38641-4 0  9995,2 51726  53.2164 236.1760 0001558 107.9971 252.1191 15.08838433 94245,6917.885,95.438,540.828,538.672,0.0
51726.0,STARLINK-3527,PAYLOAD,2023-10-28 12:10:21,15.08834558,0.000136,53.2159,234.0986,86.2772,273.8375,-1.9612e-06,-3.19e-06,0.0,0 STARLINK-3527,1 51726U 22016N   23301.50719587 -.00000319  00000-0 -19612-5 0  9992,2 51726  53.2159 234.0986 0001360  86.2772 273.8375 15.08834558 93253,6917.897,95.438,540.703,538.821,0.0
51726.0,STARLINK-3527,PAYLOAD,2023-10-29 02:28:49,15.08856129,0.00014,53.2168,231.421,95.5761,264.5391,0.00061653,9.542e-05,0.0,0 STARLINK-3527,1 51726U 22016N   23302.10334861  .00009542  00000-0  61653-3 0  9992,2 51726  53.2168 231.4210 0001400  95.5761 264.5391 15.08856129 94401,6917.831,95.437,540.665,538.728,0.0
51726.0,STARLINK-3527,PAYLOAD,2023-10-29 12:01:08,15.08847825,0.0001395,53.2169,229.6368,82.9601,277.155,0.00049861,7.658e-05,0.0,0 STARLINK-3527,1 51726U 22016N   23302.50079213  .00007658  00000-0  49861-3 0  9996,2 51726  53.2169 229.6368 0001395  82.9601 277.1550 15.08847825 94467,6917.856,95.437,540.687,538.756,0.0
51726.0,STARLINK-3527,PAYLOAD,2023-10-29 18:22:41,15.08834835,0.000176,53.217,228.4479,78.0147,282.1042,4.6793e-05,4.57e-06,0.0,0 STARLINK-3527,1 51726U 22016N   23302.76575918  .00000457  00000-0  46793-4 0  9999,2 51726  53.2170 228.4479 0001760  78.0147 282.1042 15.08834835 94500,6917.896,95.438,540.979,538.544,0.0
51726.0,STARLINK-3527,PAYLOAD,2023-10-29 23:08:50,15.0883487,0.0001382,53.2168,227.5563,78.8529,281.2619,-5.6945e-05,-1.194e-05,0.0,0 STARLINK-3527,1 51726U 22016N   23302.96447770 -.00001194  00000-0 -56945-4 0  9996,2 51726  53.2168 227.5563 0001382  78.8529 281.2619 15.08834870 93477,6917.896,95.438,540.717,538.805,0.0
51726.0,STARLINK-3527,PAYLOAD,2023-10-30 03:55:00,15.08847362,0.0001418,53.2167,226.6641,78.8698,281.2453,0.00059829,9.249e-05,0.0,0 STARLINK-3527,1 51726U 22016N   23303.16319547  .00009249  00000-0  59829-3 0  9999,2 51726  53.2167 226.6641 0001418  78.8698 281.2453 15.08847362 94567,6917.858,95.437,540.704,538.742,0.0
51726.0,STARLINK-3527,PAYLOAD,2023-10-30 19:48:52,15.08827241,0.0001504,53.2164,223.6913,90.0416,270.0749,4.9586e-05,5.01e-06,0.0,0 STARLINK-3527,1 51726U 22016N   23303.82560381  .00000501  00000-0  49586-4 0  9998,2 51726  53.2164 223.6913 0001504  90.0416 270.0749 15.08827241 94662,6917.919,95.438,540.825,538.744,0.0
51726.0,STARLINK-3527,PAYLOAD,2023-10-31 02:10:24,15.08840119,0.0001538,53.2162,222.5012,87.3402,272.7767,0.00020472,2.972e-05,0.0,0 STARLINK-3527,1 51726U 22016N   23304.09056199  .00002972  00000-0  20472-3 0  9991,2 51726  53.2162 222.5012 0001538  87.3402 272.7767 15.08840119 94702,6917.88,95.438,540.809,538.681,0.0
51726.0,STARLINK-3527,PAYLOAD,2023-10-31 11:42:43,15.08843895,0.0001598,53.2165,220.7175,84.9139,275.2035,0.00037495,5.685e-05,0.0,0 STARLINK-3527,1 51726U 22016N   23304.48800264  .00005685  00000-0  37495-3 0  9991,2 51726  53.2165 220.7175 0001598  84.9139 275.2035 15.08843895 93700,6917.868,95.437,540.839,538.628,0.0
51726.0,STARLINK-3527,PAYLOAD,2023-10-31 18:04:15,15.08845589,0.0001488,53.2159,219.528,83.7169,276.3993,0.00038231,5.803e-05,0.0,0 STARLINK-3527,1 51726U 22016N   23304.75296183  .00005803  00000-0  38231-3 0  9991,2 51726  53.2159 219.5280 0001488  83.7169 276.3993 15.08845589 93745,6917.863,95.437,540.758,538.699,0.0
51726.0,STARLINK-3527,PAYLOAD,2023-11-01 03:36:34,15.08851378,0.000154,53.2165,217.7435,83.4917,276.6251,0.00039039,5.932e-05,0.0,0 STARLINK-3527,1 51726U 22016N   23305.15040004  .00005932  00000-0  39039-3 0  9995,2 51726  53.2165 217.7435 0001540  83.4917 276.6251 15.08851378 94868,6917.846,95.437,540.776,538.645,0.0
51726.0,STARLINK-3527,PAYLOAD,2023-11-01 11:33:30,15.08844322,0.0001425,53.216,216.2564,92.7176,267.3979,0.00022844,3.35e-05,0.0,0 STARLINK-3527,1 51726U 22016N   23305.48160142  .00003350  00000-0  22844-3 0  9995,2 51726  53.2160 216.2564 0001425  92.7176 267.3979 15.08844322 94913,6917.867,95.437,540.718,538.746,0.0
51726.0,STARLINK-3527,PAYLOAD,2023-11-01 22:41:12,15.08848572,0.0001821,53.2169,214.1758,93.6739,266.4461,0.00026282,3.898e-05,0.0,0 STARLINK-3527,1 51726U 22016N   23305.94528064  .00003898  00000-0  26282-3 0  9994,2 51726  53.2169 214.1758 0001821  93.6739 266.4461 15.08848572 93926,6917.854,95.437,540.979,538.459,0.0
51726.0,STARLINK-3527,PAYLOAD,2023-11-02 11:24:17,15.0884029,0.0002212,53.2165,211.7981,79.6328,280.4913,1.2094e-05,-9.6e-07,0.0,0 STARLINK-3527,1 51726U 22016N   23306.47520318 -.00000096  00000-0  12094-4 0  9992,2 51726  53.2165 211.7981 0002212  79.6328 280.4913 15.08840290 95060,6917.88,95.438,541.275,538.214,0.0
51726.0,STARLINK-3527,PAYLOAD,2023-11-02 22:31:59,15.08841365,0.0001897,53.2161,209.7159,83.8556,276.2652,9.7475e-05,1.264e-05,0.0,0 STARLINK-3527,1 51726U 22016N   23306.93888294  .00001264  00000-0  97475-4 0  9996,2 51726  53.2161 209.7159 0001897  83.8556 276.2652 15.08841365 94075,6917.876,95.437,541.054,538.429,0.0
51726.0,STARLINK-3527,PAYLOAD,2023-11-03 00:07:22,15.08841835,0.0001713,53.2159,209.4179,87.9103,272.2085,9.4267e-05,1.213e-05,0.0,0 STARLINK-3527,1 51726U 22016N   23307.00512213  .00001213  00000-0  94267-4 0  9990,2 51726  53.2159 209.4179 0001713  87.9103 272.2085 15.08841835 94080,6917.875,95.437,540.925,538.555,0.0
51726.0,STARLINK-3527,PAYLOAD,2023-11-03 20:47:23,15.08841818,0.0001656,53.2153,205.5498,94.9513,265.1668,0.00019814,2.867e-05,0.0,0 STARLINK-3527,1 51726U 22016N   23307.86624313  .00002867  00000-0  19814-3 0  9999,2 51726  53.2153 205.5498 0001656  94.9513 265.1668 15.08841818 95275,6917.875,95.437,540.885,538.594,0.0
51726.0,STARLINK-3527,PAYLOAD,2023-11-03 22:22:46,15.0884139,0.0001648,53.2153,205.2524,94.9479,265.1701,0.000189,2.721e-05,0.0,0 STARLINK-3527,1 51726U 22016N   23307.93248319  .00002721  00000-0  18900-3 0  9999,2 51726  53.2153 205.2524 0001648  94.9479 265.1701 15.08841390 94221,6917.876,95.437,540.881,538.601,0.0
51726.0,STARLINK-3527,PAYLOAD,2023-11-03 23:58:09,15.08849236,0.0001505,53.2149,204.9551,97.7304,262.3859,0.00031226,4.686e-05,0.0,0 STARLINK-3527,1 51726U 22016N   23307.99872100  .00004686  00000-0  31226-3 0  9994,2 51726  53.2149 204.9551 0001505  97.7304 262.3859 15.08849236 94233,6917.852,95.437,540.758,538.676,0.0
51726.0,STARLINK-3527,PAYLOAD,2023-11-04 22:13:33,15.08845533,0.0001548,53.2159,200.792,102.2105,257.906,0.00025806,3.822e-05,0.0,0 STARLINK-3527,1 51726U 22016N   23308.92608331  .00003822  00000-0  25806-3 0  9999,2 51726  53.2159 200.7920 0001548 102.2105 257.9060 15.08845533 94371,6917.863,95.437,540.799,538.658,0.0
51726.0,STARLINK-3527,PAYLOAD,2023-11-05 02:59:42,15.08855562,0.0001447,53.216,199.9006,90.2113,269.9045,0.00040691,6.197e-05,0.0,0 STARLINK-3527,1 51726U 22016N   23309.12479894  .00006197  00000-0  40691-3 0  9999,2 51726  53.2160 199.9006 0001447  90.2113 269.9045 15.08855562 95460,6917.833,95.437,540.699,538.697,0.0
51726.0,STARLINK-3527,PAYLOAD,2023-11-05 09:21:14,15.08853981,0.0001411,53.2162,198.7101,92.2257,267.8896,0.0004071,6.199e-05,0.0,0 STARLINK-3527,1 51726U 22016N   23309.38975642  .00006199  00000-0  40710-3 0  9993,2 51726  53.2162 198.7101 0001411  92.2257 267.8896 15.08853981 94448,6917.838,95.437,540.679,538.727,0.0
51726.0,STARLINK-3527,PAYLOAD,2023-11-05 22:04:19,15.08882763,0.0001503,53.2157,196.3315,100.9101,259.206,0.00094561,0.00014811,0.0,0 STARLINK-3527,1 51726U 22016N   23309.91966520  .00014811  00000-0  94561-3 0  9990,2 51726  53.2157 196.3315 0001503 100.9101 259.2060 15.08882763 94527,6917.75,95.435,540.654,538.575,0.0
51726.0,STARLINK-3527,PAYLOAD,2023-11-05 23:39:41,15.08886184,0.0001426,53.2157,196.0362,90.4189,269.6967,0.00099061,0.00015533,0.0,0 STARLINK-3527,1 51726U 22016N   23309.98590258  .00015533  00000-0  99061-3 0  9990,2 51726  53.2157 196.0362 0001426  90.4189 269.6967 15.08886184 95599,6917.739,95.435,540.591,538.618,0.0
51726.0,STARLINK-3527,PAYLOAD,2023-11-06 09:12:00,15.08867217,0.0001506,53.2156,194.2513,88.3841,271.7323,0.00036156,5.475e-05,0.0,0 STARLINK-3527,1 51726U 22016N   23310.38334240  .00005475  00000-0  36156-3 0  9993,2 51726  53.2156 194.2513 0001506  88.3841 271.7323 15.08867217 95659,6917.797,95.436,540.704,538.62,0.0
51726.0,STARLINK-3527,PAYLOAD,2023-11-06 21:55:07,15.08791075,0.0001319,53.2162,191.8717,93.6261,266.4882,-0.0013906,-0.00022321,0.0,0 STARLINK-3527,1 51726U 22016N   23310.91328506 -.00022321  00000-0 -13906-2 0  9998,2 51726  53.2162 191.8717 0001319  93.6261 266.4882 15.08791075 94672,6918.03,95.441,540.807,538.982,0.0
